line1,line2,validFromUtcTime
1 00000U 00000E   26001.00000000  .00000000  00000-0  27772-4 0    01,2 00000  89.0018   0.3306 0010105 269.6274 315.5177 13.55283844    05,2026-01-01T00:00:00Z
1 00000U 00000E   26002.00000000  .00000000  00000-0  27772-4 0    02,2 00000  89.0013   0.2293 0010223 266.1338 155.1611 13.55292381    05,2026-01-02T00:00:00Z
